[{"OBJECT_NAME":"STARLINK-30890","OBJECT_ID":"2023-177M","EPOCH":"2026-03-08T12:00:01.999296","MEAN_MOTION":15.26753629,"ECCENTRICITY":0.0001475,"INCLINATION":43.0011,"RA_OF_ASC_NODE":356.9785,"ARG_OF_PERICENTER":270.1534,"MEAN_ANOMALY":300.8038,"EPHEMERIS_TYPE":0,"CLASSIFICATION_TYPE":"U","NORAD_CAT_ID":58362,"ELEMENT_SET_NO":999,"REV_AT_EPOCH":557,"BSTAR":-0.00072307,"MEAN_MOTION_DOT":-0.00019612,"MEAN_MOTION_DDOT":0},{"OBJECT_NAME":"STARLINK-30909","OBJECT_ID":"2023-177N","EPOCH":"2026-03-08T12:00:01.999296","MEAN_MOTION":15.26744488,"ECCENTRICITY":0.0001637,"INCLINATION":43.0011,"RA_OF_ASC_NODE":356.9753,"ARG_OF_PERICENTER":270.3239,"MEAN_ANOMALY":301.6915,"EPHEMERIS_TYPE":0,"CLASSIFICATION_TYPE":"U","NORAD_CAT_ID":58363,"ELEMENT_SET_NO":999,"REV_AT_EPOCH":557,"BSTAR":-0.00069239,"MEAN_MOTION_DOT":-0.00018788,"MEAN_MOTION_DDOT":0},{"OBJECT_NAME":"STARLINK-30904","OBJECT_ID":"2023-177P","EPOCH":"2026-03-08T04:56:25.812384","MEAN_MOTION":15.04769463,"ECCENTRICITY":0.0003037,"INCLINATION":43.0031,"RA_OF_ASC_NODE":357.8497,"ARG_OF_PERICENTER":203.1602,"MEAN_ANOMALY":156.9105,"EPHEMERIS_TYPE":0,"CLASSIFICATION_TYPE":"U","NORAD_CAT_ID":58364,"ELEMENT_SET_NO":999,"REV_AT_EPOCH":12801,"BSTAR":0.0035681,"MEAN_MOTION_DOT":0.00051328,"MEAN_MOTION_DDOT":0},{"OBJECT_NAME":"STARLINK-30918","OBJECT_ID":"2023-177Q","EPOCH":"2026-03-08T12:00:01.999296","MEAN_MOTION":15.25831673,"ECCENTRICITY":0.000169,"INCLINATION":43.0006,"RA_OF_ASC_NODE":357.2442,"ARG_OF_PERICENTER":300.621,"MEAN_ANOMALY":156.4387,"EPHEMERIS_TYPE":0,"CLASSIFICATION_TYPE":"U","NORAD_CAT_ID":58365,"ELEMENT_SET_NO":999,"REV_AT_EPOCH":576,"BSTAR":0.045647,"MEAN_MOTION_DOT":0.01307897,"MEAN_MOTION_DDOT":0},{"OBJECT_NAME":"STARLINK-30892","OBJECT_ID":"2023-177R","EPOCH":"2026-03-08T12:00:01.999296","MEAN_MOTION":15.26745235,"ECCENTRICITY":0.0002072,"INCLINATION":43.0009,"RA_OF_ASC_NODE":357.0719,"ARG_OF_PERICENTER":275.4067,"MEAN_ANOMALY":254.854,"EPHEMERIS_TYPE":0,"CLASSIFICATION_TYPE":"U","NORAD_CAT_ID":58366,"ELEMENT_SET_NO":999,"REV_AT_EPOCH":572,"BSTAR":-0.0011215,"MEAN_MOTION_DOT":-0.00030226,"MEAN_MOTION_DDOT":0},{"OBJECT_NAME":"STARLINK-30891","OBJECT_ID":"2023-177S","EPOCH":"2026-03-08T12:00:01.999296","MEAN_MOTION":15.24560032,"ECCENTRICITY":0.0002002,"INCLINATION":43.002,"RA_OF_ASC_NODE":357.249,"ARG_OF_PERICENTER":271.7239,"MEAN_ANOMALY":182.9744,"EPHEMERIS_TYPE":0,"CLASSIFICATION_TYPE":"U","NORAD_CAT_ID":58367,"ELEMENT_SET_NO":999,"REV_AT_EPOCH":576,"BSTAR":0.047233,"MEAN_MOTION_DOT":0.0130234,"MEAN_MOTION_DDOT":0},{"OBJECT_NAME":"STARLINK-30889","OBJECT_ID":"2023-177T","EPOCH":"2026-03-08T12:00:01.999296","MEAN_MOTION":15.22826199,"ECCENTRICITY":0.0001649,"INCLINATION":43.0007,"RA_OF_ASC_NODE":357.3854,"ARG_OF_PERICENTER":266.613,"MEAN_ANOMALY":130.442,"EPHEMERIS_TYPE":0,"CLASSIFICATION_TYPE":"U","NORAD_CAT_ID":58368,"ELEMENT_SET_NO":999,"REV_AT_EPOCH":582,"BSTAR":0.079228,"MEAN_MOTION_DOT":0.02109171,"MEAN_MOTION_DDOT":0},{"OBJECT_NAME":"STARLINK-30870","OBJECT_ID":"2023-177U","EPOCH":"2026-03-08T12:00:01.999296","MEAN_MOTION":15.20480337,"ECCENTRICITY":0.0001642,"INCLINATION":43.0007,"RA_OF_ASC_NODE":357.4864,"ARG_OF_PERICENTER":282.9289,"MEAN_ANOMALY":70.4628,"EPHEMERIS_TYPE":0,"CLASSIFICATION_TYPE":"U","NORAD_CAT_ID":58369,"ELEMENT_SET_NO":999,"REV_AT_EPOCH":576,"BSTAR":0.086485,"MEAN_MOTION_DOT":0.02114729,"MEAN_MOTION_DDOT":0},{"OBJECT_NAME":"STARLINK-30888","OBJECT_ID":"2023-177V","EPOCH":"2026-03-08T12:00:01.999296","MEAN_MOTION":15.26745136,"ECCENTRICITY":0.0002099,"INCLINATION":43.0012,"RA_OF_ASC_NODE":356.9124,"ARG_OF_PERICENTER":259.9781,"MEAN_ANOMALY":332.8392,"EPHEMERIS_TYPE":0,"CLASSIFICATION_TYPE":"U","NORAD_CAT_ID":58370,"ELEMENT_SET_NO":999,"REV_AT_EPOCH":566,"BSTAR":-0.00063512,"MEAN_MOTION_DOT":-0.0001726,"MEAN_MOTION_DDOT":0},{"OBJECT_NAME":"STARLINK-30859","OBJECT_ID":"2023-177W","EPOCH":"2026-03-08T12:00:01.999296","MEAN_MOTION":15.24242964,"ECCENTRICITY":0.0001939,"INCLINATION":42.9996,"RA_OF_ASC_NODE":357.5415,"ARG_OF_PERICENTER":284.266,"MEAN_ANOMALY":33.5217,"EPHEMERIS_TYPE":0,"CLASSIFICATION_TYPE":"U","NORAD_CAT_ID":58371,"ELEMENT_SET_NO":999,"REV_AT_EPOCH":566,"BSTAR":0.066293,"MEAN_MOTION_DOT":0.0181161,"MEAN_MOTION_DDOT":0},{"OBJECT_NAME":"STARLINK-30884","OBJECT_ID":"2023-177X","EPOCH":"2026-03-08T12:00:01.999296","MEAN_MOTION":15.20125572,"ECCENTRICITY":0.0001535,"INCLINATION":43.0005,"RA_OF_ASC_NODE":357.4064,"ARG_OF_PERICENTER":284.2761,"MEAN_ANOMALY":101.6552,"EPHEMERIS_TYPE":0,"CLASSIFICATION_TYPE":"U","NORAD_CAT_ID":58372,"ELEMENT_SET_NO":999,"REV_AT_EPOCH":576,"BSTAR":0.081782,"MEAN_MOTION_DOT":0.02000713,"MEAN_MOTION_DDOT":0},{"OBJECT_NAME":"STARLINK-30852","OBJECT_ID":"2023-177Y","EPOCH":"2026-03-08T12:00:01.999296","MEAN_MOTION":15.26764153,"ECCENTRICITY":0.0001695,"INCLINATION":43.0011,"RA_OF_ASC_NODE":357.0498,"ARG_OF_PERICENTER":254.6895,"MEAN_ANOMALY":271.9161,"EPHEMERIS_TYPE":0,"CLASSIFICATION_TYPE":"U","NORAD_CAT_ID":58373,"ELEMENT_SET_NO":999,"REV_AT_EPOCH":561,"BSTAR":-0.00045289,"MEAN_MOTION_DOT":-0.00012397,"MEAN_MOTION_DDOT":0},{"OBJECT_NAME":"STARLINK-30911","OBJECT_ID":"2023-178A","EPOCH":"2026-03-08T02:54:50.301792","MEAN_MOTION":15.30175761,"ECCENTRICITY":8.91e-5,"INCLINATION":53.1613,"RA_OF_ASC_NODE":8.1886,"ARG_OF_PERICENTER":100.7443,"MEAN_ANOMALY":259.3658,"EPHEMERIS_TYPE":0,"CLASSIFICATION_TYPE":"U","NORAD_CAT_ID":58374,"ELEMENT_SET_NO":999,"REV_AT_EPOCH":12964,"BSTAR":-4.9078e-5,"MEAN_MOTION_DOT":-1.811e-5,"MEAN_MOTION_DDOT":0},{"OBJECT_NAME":"STARLINK-30894","OBJECT_ID":"2023-178B","EPOCH":"2026-03-08T12:34:19.591968","MEAN_MOTION":15.30212475,"ECCENTRICITY":0.0001058,"INCLINATION":53.162,"RA_OF_ASC_NODE":6.4412,"ARG_OF_PERICENTER":77.513,"MEAN_ANOMALY":282.5989,"EPHEMERIS_TYPE":0,"CLASSIFICATION_TYPE":"U","NORAD_CAT_ID":58375,"ELEMENT_SET_NO":999,"REV_AT_EPOCH":12964,"BSTAR":-0.00018541,"MEAN_MOTION_DOT":-5.848e-5,"MEAN_MOTION_DDOT":0},{"OBJECT_NAME":"STARLINK-30910","OBJECT_ID":"2023-178C","EPOCH":"2026-03-08T04:48:38.549088","MEAN_MOTION":15.3018465,"ECCENTRICITY":9.68e-5,"INCLINATION":53.1613,"RA_OF_ASC_NODE":7.9782,"ARG_OF_PERICENTER":86.5028,"MEAN_ANOMALY":273.6083,"EPHEMERIS_TYPE":0,"CLASSIFICATION_TYPE":"U","NORAD_CAT_ID":58376,"ELEMENT_SET_NO":999,"REV_AT_EPOCH":12966,"BSTAR":-4.7114e-5,"MEAN_MOTION_DOT":-1.753e-5,"MEAN_MOTION_DDOT":0},{"OBJECT_NAME":"STARLINK-30914","OBJECT_ID":"2023-178D","EPOCH":"2026-03-08T06:05:58.241184","MEAN_MOTION":15.30189422,"ECCENTRICITY":0.000107,"INCLINATION":53.1606,"RA_OF_ASC_NODE":7.583,"ARG_OF_PERICENTER":94.4226,"MEAN_ANOMALY":265.6897,"EPHEMERIS_TYPE":0,"CLASSIFICATION_TYPE":"U","NORAD_CAT_ID":58377,"ELEMENT_SET_NO":999,"REV_AT_EPOCH":12967,"BSTAR":-0.00011335,"MEAN_MOTION_DOT":-3.713e-5,"MEAN_MOTION_DDOT":0},{"OBJECT_NAME":"STARLINK-30920","OBJECT_ID":"2023-178E","EPOCH":"2026-03-08T02:07:04.996128","MEAN_MOTION":15.30198278,"ECCENTRICITY":0.0001161,"INCLINATION":53.1621,"RA_OF_ASC_NODE":355.9447,"ARG_OF_PERICENTER":75.3436,"MEAN_ANOMALY":284.7694,"EPHEMERIS_TYPE":0,"CLASSIFICATION_TYPE":"U","NORAD_CAT_ID":58378,"ELEMENT_SET_NO":999,"REV_AT_EPOCH":12982,"BSTAR":2.3027e-5,"MEAN_MOTION_DOT":3.23e-6,"MEAN_MOTION_DDOT":0},{"OBJECT_NAME":"STARLINK-30882","OBJECT_ID":"2023-178F","EPOCH":"2026-03-08T12:43:27.651360","MEAN_MOTION":15.30189679,"ECCENTRICITY":9.25e-5,"INCLINATION":53.1628,"RA_OF_ASC_NODE":6.4777,"ARG_OF_PERICENTER":92.1561,"MEAN_ANOMALY":267.9545,"EPHEMERIS_TYPE":0,"CLASSIFICATION_TYPE":"U","NORAD_CAT_ID":58379,"ELEMENT_SET_NO":999,"REV_AT_EPOCH":12971,"BSTAR":-2.5334e-5,"MEAN_MOTION_DOT":-1.109e-5,"MEAN_MOTION_DDOT":0},{"OBJECT_NAME":"STARLINK-30915","OBJECT_ID":"2023-178G","EPOCH":"2026-03-08T13:27:20.190240","MEAN_MOTION":15.3059786,"ECCENTRICITY":9.27e-5,"INCLINATION":53.1571,"RA_OF_ASC_NODE":276.5686,"ARG_OF_PERICENTER":60.8661,"MEAN_ANOMALY":299.2432,"EPHEMERIS_TYPE":0,"CLASSIFICATION_TYPE":"U","NORAD_CAT_ID":58380,"ELEMENT_SET_NO":999,"REV_AT_EPOCH":13094,"BSTAR":0.00067733,"MEAN_MOTION_DOT":0.00020003,"MEAN_MOTION_DDOT":0},{"OBJECT_NAME":"STARLINK-30923","OBJECT_ID":"2023-178H","EPOCH":"2026-03-08T05:06:52.643520","MEAN_MOTION":15.3017341,"ECCENTRICITY":0.0001127,"INCLINATION":53.1613,"RA_OF_ASC_NODE":8.0076,"ARG_OF_PERICENTER":95.9606,"MEAN_ANOMALY":264.1524,"EPHEMERIS_TYPE":0,"CLASSIFICATION_TYPE":"U","NORAD_CAT_ID":58381,"ELEMENT_SET_NO":999,"REV_AT_EPOCH":12959,"BSTAR":-5.4351e-5,"MEAN_MOTION_DOT":-1.967e-5,"MEAN_MOTION_DDOT":0},{"OBJECT_NAME":"STARLINK-30927","OBJECT_ID":"2023-178J","EPOCH":"2026-03-08T05:26:37.239360","MEAN_MOTION":15.30190454,"ECCENTRICITY":0.0001071,"INCLINATION":53.161,"RA_OF_ASC_NODE":8.1351,"ARG_OF_PERICENTER":93.2272,"MEAN_ANOMALY":266.8851,"EPHEMERIS_TYPE":0,"CLASSIFICATION_TYPE":"U","NORAD_CAT_ID":58382,"ELEMENT_SET_NO":999,"REV_AT_EPOCH":12964,"BSTAR":-1.6206e-5,"MEAN_MOTION_DOT":-8.39e-6,"MEAN_MOTION_DDOT":0},{"OBJECT_NAME":"STARLINK-30921","OBJECT_ID":"2023-178K","EPOCH":"2026-03-08T05:02:19.396608","MEAN_MOTION":15.30184726,"ECCENTRICITY":9.85e-5,"INCLINATION":53.1625,"RA_OF_ASC_NODE":8.0322,"ARG_OF_PERICENTER":130.8014,"MEAN_ANOMALY":229.3072,"EPHEMERIS_TYPE":0,"CLASSIFICATION_TYPE":"U","NORAD_CAT_ID":58383,"ELEMENT_SET_NO":999,"REV_AT_EPOCH":12964,"BSTAR":-8.341e-5,"MEAN_MOTION_DOT":-2.827e-5,"MEAN_MOTION_DDOT":0},{"OBJECT_NAME":"STARLINK-30825","OBJECT_ID":"2023-178L","EPOCH":"2026-03-08T06:13:33.508704","MEAN_MOTION":15.30188967,"ECCENTRICITY":0.0001202,"INCLINATION":53.1615,"RA_OF_ASC_NODE":7.6051,"ARG_OF_PERICENTER":81.0572,"MEAN_ANOMALY":279.0564,"EPHEMERIS_TYPE":0,"CLASSIFICATION_TYPE":"U","NORAD_CAT_ID":58384,"ELEMENT_SET_NO":999,"REV_AT_EPOCH":12967,"BSTAR":-5.4819e-5,"MEAN_MOTION_DOT":-1.982e-5,"MEAN_MOTION_DDOT":0}]
